0 COSMOS 2251 DEB
1 35451U 93036AKV 13282.77699197  .00002390  00000-0  36121-3 0  3297
2 35451 073.9508 320.3707 0124413 179.7649 180.3604 14.69736656240159
0 COSMOS 2251 DEB
1 35451U 93036AKV 13285.49970937  .00002350  00000-0  35530-3 0  3304
2 35451 073.9502 315.0648 0124261 173.8280 186.4458 14.69748104240554
0 COSMOS 2251 DEB
1 35451U 93036AKV 13287.74593432  .00003255  00000-0  48988-3 0  3312
2 35451 073.9497 310.6875 0124071 168.9355 191.4592 14.69759031240889
0 COSMOS 2251 DEB
1 35451U 93036AKV 13290.40053546  .00003116  00000-0  46918-3 0  3324
2 35451 073.9492 305.5134 0123858 163.1223 197.4128 14.69775780241272
0 COSMOS 2251 DEB
1 35451U 93036AKV 13292.71477987  .00003022  00000-0  45522-3 0  3336
2 35451 073.9495 301.0025 0123728 158.0459 202.6079 14.69786663241619
0 COSMOS 2251 DEB
1 35451U 93036AKV 13295.43739786  .00003653  00000-0  54889-3 0  3343
2 35451 073.9501 295.6958 0123614 152.0674 208.7207 14.69799572242015
